QIANFAN-9               
1 60387U 24140J   25294.83929516  .00000071  00000+0  92078-4 0  9997
2 60387  88.9740 304.7180 0015973 355.2528   4.8469 13.50974451 60321
QIANFAN-10              
1 60388U 24140K   25294.84346884  .00000056  00000+0  67633-4 0  9992
2 60388  88.9749 304.0596 0013660 332.5141  27.5286 13.50971118 60455
QIANFAN-11              
1 60389U 24140L   25294.80638807  .00000063  00000+0  78914-4 0  9990
2 60389  88.9676 304.6894 0014035 356.0825   4.0214 13.50971811 60102
QIANFAN-12              
1 60390U 24140M   25294.82691179  .00000061  00000+0  75595-4 0  9995
2 60390  88.9719 304.7080 0013150   4.9754 355.1526 13.50972143 60236
QIANFAN-13              
1 60391U 24140N   25294.79812691  .00000065  00000+0  81931-4 0  9991
2 60391  88.9731 304.8045 0013085   7.8252 352.3101 13.50972383 60251
QIANFAN-14              
1 60392U 24140P   25294.82272031  .00000050  00000+0  58228-4 0  9991
2 60392  88.9710 304.7107 0016723   5.6184 354.5151 13.50972724 60268
QIANFAN-15              
1 60393U 24140Q   25294.83093171  .00000112  00000+0  15441-3 0  9997
2 60393  88.9731 304.6540 0012045 354.3351   5.7662 13.50970579 60252
QIANFAN-16              
1 60394U 24140R   25294.81876735  .00000049  00000+0  57119-4 0  9999
2 60394  88.9737 304.7739 0014826  10.4892 349.6565 13.50971727 60167
